STARLINK-32124          
1 60298U 24132W   26068.27409548  .00000212  00000+0  19274-4 0  9999
2 60298  53.1609  54.5825 0001190 101.6551 258.4584 15.30183261 91499
KUIPER-00266            
1 67789U 26030AB  26067.91293632  .00029701  00000+0  98220-3 0  9996
2 67789  51.8807 223.5904 0022313  72.5291 287.8129 15.30874235  4964
